[{"OBJECT_NAME":"TIANMU-1 10","OBJECT_ID":"2023-101D","EPOCH":"2026-04-04T22:32:36.537792","MEAN_MOTION":15.2947952,"ECCENTRICITY":0.00061451,"INCLINATION":97.2693,"RA_OF_ASC_NODE":147.5069,"ARG_OF_PERICENTER":65.0148,"MEAN_ANOMALY":295.173,"EPHEMERIS_TYPE":0,"CLASSIFICATION_TYPE":"U","NORAD_CAT_ID":57402,"ELEMENT_SET_NO":999,"REV_AT_EPOCH":15044,"BSTAR":0.00032944116,"MEAN_MOTION_DOT":9.349e-5,"MEAN_MOTION_DDOT":0},{"OBJECT_NAME":"FENGYUN 3F","OBJECT_ID":"2023-111A","EPOCH":"2026-04-04T21:37:58.609056","MEAN_MOTION":14.19926043,"ECCENTRICITY":8.078e-5,"INCLINATION":98.6877,"RA_OF_ASC_NODE":166.2619,"ARG_OF_PERICENTER":87.4914,"MEAN_ANOMALY":272.6355,"EPHEMERIS_TYPE":0,"CLASSIFICATION_TYPE":"U","NORAD_CAT_ID":57490,"ELEMENT_SET_NO":999,"REV_AT_EPOCH":13846,"BSTAR":7.7238489e-5,"MEAN_MOTION_DOT":1.21e-6,"MEAN_MOTION_DDOT":0},{"OBJECT_NAME":"ARKTIKA-M 2","OBJECT_ID":"2023-198A","EPOCH":"2026-03-30T23:56:14.512416","MEAN_MOTION":2.00607099,"ECCENTRICITY":0.68829758,"INCLINATION":63.2169,"RA_OF_ASC_NODE":163.0455,"ARG_OF_PERICENTER":267.6817,"MEAN_ANOMALY":18.8399,"EPHEMERIS_TYPE":0,"CLASSIFICATION_TYPE":"U","NORAD_CAT_ID":58584,"ELEMENT_SET_NO":999,"REV_AT_EPOCH":1675,"BSTAR":0,"MEAN_MOTION_DOT":1.42e-6,"MEAN_MOTION_DDOT":0},{"OBJECT_NAME":"TIANMU-1 11","OBJECT_ID":"2023-205A","EPOCH":"2026-04-04T21:40:32.085696","MEAN_MOTION":15.26251305,"ECCENTRICITY":0.00071019,"INCLINATION":97.3509,"RA_OF_ASC_NODE":117.6307,"ARG_OF_PERICENTER":260.2756,"MEAN_ANOMALY":99.768,"EPHEMERIS_TYPE":0,"CLASSIFICATION_TYPE":"U","NORAD_CAT_ID":58645,"ELEMENT_SET_NO":999,"REV_AT_EPOCH":12634,"BSTAR":0.00029574091,"MEAN_MOTION_DOT":7.596e-5,"MEAN_MOTION_DDOT":0},{"OBJECT_NAME":"TIANMU-1 12","OBJECT_ID":"2023-205B","EPOCH":"2026-04-04T22:28:55.284672","MEAN_MOTION":15.26190654,"ECCENTRICITY":0.00056503,"INCLINATION":97.3497,"RA_OF_ASC_NODE":117.4357,"ARG_OF_PERICENTER":237.1788,"MEAN_ANOMALY":122.8907,"EPHEMERIS_TYPE":0,"CLASSIFICATION_TYPE":"U","NORAD_CAT_ID":58646,"ELEMENT_SET_NO":999,"REV_AT_EPOCH":12633,"BSTAR":0.00033739533,"MEAN_MOTION_DOT":8.659e-5,"MEAN_MOTION_DDOT":0},{"OBJECT_NAME":"TIANMU-1 13","OBJECT_ID":"2023-205C","EPOCH":"2026-04-04T21:37:44.510304","MEAN_MOTION":15.26240551,"ECCENTRICITY":0.00064275,"INCLINATION":97.3525,"RA_OF_ASC_NODE":117.6513,"ARG_OF_PERICENTER":215.1849,"MEAN_ANOMALY":144.8966,"EPHEMERIS_TYPE":0,"CLASSIFICATION_TYPE":"U","NORAD_CAT_ID":58647,"ELEMENT_SET_NO":999,"REV_AT_EPOCH":12632,"BSTAR":0.00031356789,"MEAN_MOTION_DOT":8.055e-5,"MEAN_MOTION_DDOT":0},{"OBJECT_NAME":"TIANMU-1 14","OBJECT_ID":"2023-205D","EPOCH":"2026-04-04T22:50:33.545760","MEAN_MOTION":15.26215247,"ECCENTRICITY":0.00070038,"INCLINATION":97.346,"RA_OF_ASC_NODE":116.9461,"ARG_OF_PERICENTER":221.4293,"MEAN_ANOMALY":138.6416,"EPHEMERIS_TYPE":0,"CLASSIFICATION_TYPE":"U","NORAD_CAT_ID":58648,"ELEMENT_SET_NO":999,"REV_AT_EPOCH":12633,"BSTAR":0.0003247888,"MEAN_MOTION_DOT":8.341e-5,"MEAN_MOTION_DDOT":0},{"OBJECT_NAME":"TIANMU-1 19","OBJECT_ID":"2023-208A","EPOCH":"2026-04-04T21:19:38.859744","MEAN_MOTION":15.30424194,"ECCENTRICITY":0.00046607,"INCLINATION":97.4417,"RA_OF_ASC_NODE":210.9175,"ARG_OF_PERICENTER":200.2987,"MEAN_ANOMALY":159.807,"EPHEMERIS_TYPE":0,"CLASSIFICATION_TYPE":"U","NORAD_CAT_ID":58660,"ELEMENT_SET_NO":999,"REV_AT_EPOCH":12611,"BSTAR":0.00041739556,"MEAN_MOTION_DOT":0.00012214,"MEAN_MOTION_DDOT":0},{"OBJECT_NAME":"TIANMU-1 20","OBJECT_ID":"2023-208B","EPOCH":"2026-04-04T22:01:56.329248","MEAN_MOTION":15.31611292,"ECCENTRICITY":0.00065274,"INCLINATION":97.4358,"RA_OF_ASC_NODE":211.5068,"ARG_OF_PERICENTER":214.7469,"MEAN_ANOMALY":145.3346,"EPHEMERIS_TYPE":0,"CLASSIFICATION_TYPE":"U","NORAD_CAT_ID":58661,"ELEMENT_SET_NO":999,"REV_AT_EPOCH":12620,"BSTAR":0.00040237648,"MEAN_MOTION_DOT":0.00012218,"MEAN_MOTION_DDOT":0},{"OBJECT_NAME":"TIANMU-1 21","OBJECT_ID":"2023-208C","EPOCH":"2026-04-04T22:43:08.152032","MEAN_MOTION":15.33722418,"ECCENTRICITY":0.00066233,"INCLINATION":97.4415,"RA_OF_ASC_NODE":213.9121,"ARG_OF_PERICENTER":208.8529,"MEAN_ANOMALY":151.2348,"EPHEMERIS_TYPE":0,"CLASSIFICATION_TYPE":"U","NORAD_CAT_ID":58662,"ELEMENT_SET_NO":999,"REV_AT_EPOCH":12633,"BSTAR":0.00045780485,"MEAN_MOTION_DOT":0.0001487,"MEAN_MOTION_DDOT":0},{"OBJECT_NAME":"TIANMU-1 22","OBJECT_ID":"2023-208D","EPOCH":"2026-04-04T21:54:58.641408","MEAN_MOTION":15.29996966,"ECCENTRICITY":0.00028192,"INCLINATION":97.4412,"RA_OF_ASC_NODE":210.935,"ARG_OF_PERICENTER":221.889,"MEAN_ANOMALY":138.2135,"EPHEMERIS_TYPE":0,"CLASSIFICATION_TYPE":"U","NORAD_CAT_ID":58663,"ELEMENT_SET_NO":999,"REV_AT_EPOCH":12612,"BSTAR":0.00038452306,"MEAN_MOTION_DOT":0.00011095,"MEAN_MOTION_DDOT":0},{"OBJECT_NAME":"TIANMU-1 15","OBJECT_ID":"2024-004A","EPOCH":"2026-04-04T22:46:58.319040","MEAN_MOTION":15.26238716,"ECCENTRICITY":0.00057988,"INCLINATION":97.4676,"RA_OF_ASC_NODE":281.1608,"ARG_OF_PERICENTER":240.3256,"MEAN_ANOMALY":119.7405,"EPHEMERIS_TYPE":0,"CLASSIFICATION_TYPE":"U","NORAD_CAT_ID":58700,"ELEMENT_SET_NO":999,"REV_AT_EPOCH":12460,"BSTAR":0.00032820389,"MEAN_MOTION_DOT":8.431e-5,"MEAN_MOTION_DDOT":0},{"OBJECT_NAME":"TIANMU-1 16","OBJECT_ID":"2024-004B","EPOCH":"2026-04-04T22:22:18.545376","MEAN_MOTION":15.26276165,"ECCENTRICITY":0.00041994,"INCLINATION":97.462,"RA_OF_ASC_NODE":280.4483,"ARG_OF_PERICENTER":241.893,"MEAN_ANOMALY":118.1884,"EPHEMERIS_TYPE":0,"CLASSIFICATION_TYPE":"U","NORAD_CAT_ID":58701,"ELEMENT_SET_NO":999,"REV_AT_EPOCH":12460,"BSTAR":0.00034867833,"MEAN_MOTION_DOT":8.971e-5,"MEAN_MOTION_DDOT":0},{"OBJECT_NAME":"TIANMU-1 17","OBJECT_ID":"2024-004C","EPOCH":"2026-04-04T21:56:16.941408","MEAN_MOTION":15.26128589,"ECCENTRICITY":0.00040431,"INCLINATION":97.4649,"RA_OF_ASC_NODE":280.8953,"ARG_OF_PERICENTER":248.4322,"MEAN_ANOMALY":111.6486,"EPHEMERIS_TYPE":0,"CLASSIFICATION_TYPE":"U","NORAD_CAT_ID":58702,"ELEMENT_SET_NO":999,"REV_AT_EPOCH":12459,"BSTAR":0.00034945777,"MEAN_MOTION_DOT":8.951e-5,"MEAN_MOTION_DDOT":0},{"OBJECT_NAME":"TIANMU-1 18","OBJECT_ID":"2024-004D","EPOCH":"2026-04-04T23:10:29.439264","MEAN_MOTION":15.26246911,"ECCENTRICITY":0.00028261,"INCLINATION":97.4667,"RA_OF_ASC_NODE":281.1628,"ARG_OF_PERICENTER":237.6342,"MEAN_ANOMALY":122.4623,"EPHEMERIS_TYPE":0,"CLASSIFICATION_TYPE":"U","NORAD_CAT_ID":58703,"ELEMENT_SET_NO":999,"REV_AT_EPOCH":12460,"BSTAR":0.00031693344,"MEAN_MOTION_DOT":8.139e-5,"MEAN_MOTION_DDOT":0},{"OBJECT_NAME":"INSAT-3DS","OBJECT_ID":"2024-033A","EPOCH":"2026-04-04T20:44:38.953536","MEAN_MOTION":1.00271676,"ECCENTRICITY":0.00021848,"INCLINATION":0.0411,"RA_OF_ASC_NODE":94.9449,"ARG_OF_PERICENTER":286.3129,"MEAN_ANOMALY":205.1525,"EPHEMERIS_TYPE":0,"CLASSIFICATION_TYPE":"U","NORAD_CAT_ID":58990,"ELEMENT_SET_NO":999,"REV_AT_EPOCH":4633,"BSTAR":0,"MEAN_MOTION_DOT":-1.55e-6,"MEAN_MOTION_DDOT":0},{"OBJECT_NAME":"METEOR-M2 4","OBJECT_ID":"2024-039A","EPOCH":"2026-04-04T22:58:23.947104","MEAN_MOTION":14.22421477,"ECCENTRICITY":0.0007645,"INCLINATION":98.6948,"RA_OF_ASC_NODE":55.2028,"ARG_OF_PERICENTER":29.8208,"MEAN_ANOMALY":330.3404,"EPHEMERIS_TYPE":0,"CLASSIFICATION_TYPE":"U","NORAD_CAT_ID":59051,"ELEMENT_SET_NO":999,"REV_AT_EPOCH":10885,"BSTAR":4.0796772e-5,"MEAN_MOTION_DOT":4.7e-7,"MEAN_MOTION_DDOT":0}]
