TIANMU-1 10             
1 57402U 23101D   26094.93931178  .00009349  00000+0  32944-3 0  9996
2 57402  97.2693 147.5069 0006145  65.0148 295.1730 15.29479520150443
FENGYUN 3F              
1 57490U 23111A   26094.90137279  .00000121  00000+0  77238-4 0  9996
2 57490  98.6877 166.2619 0000807  87.4914 272.6355 14.19926043138462
ARKTIKA-M 2             
1 58584U 23198A   26089.99739019  .00000142  00000+0  00000+0 0  9990
2 58584  63.2169 163.0455 6882975 267.6817  18.8399  2.00607099 16755
TIANMU-1 11             
1 58645U 23205A   26094.90314914  .00007596  00000+0  29574-3 0  9998
2 58645  97.3509 117.6307 0007101 260.2756  99.7680 15.26251305126340
TIANMU-1 12             
1 58646U 23205B   26094.93675098  .00008659  00000+0  33740-3 0  9996
2 58646  97.3497 117.4357 0005650 237.1788 122.8907 15.26190654126333
TIANMU-1 13             
1 58647U 23205C   26094.90120961  .00008055  00000+0  31357-3 0  9990
2 58647  97.3525 117.6513 0006427 215.1849 144.8966 15.26240551126329
TIANMU-1 14             
1 58648U 23205D   26094.95177715  .00008341  00000+0  32479-3 0  9999
2 58648  97.3460 116.9461 0007003 221.4293 138.6416 15.26215247126332
TIANMU-1 19             
1 58660U 23208A   26094.88864421  .00012214  00000+0  41740-3 0  9990
2 58660  97.4417 210.9175 0004660 200.2987 159.8070 15.30424194126112
TIANMU-1 20             
1 58661U 23208B   26094.91801307  .00012218  00000+0  40238-3 0  9994
2 58661  97.4358 211.5068 0006527 214.7469 145.3346 15.31611292126208
TIANMU-1 21             
1 58662U 23208C   26094.94662213  .00014870  00000+0  45780-3 0  9992
2 58662  97.4415 213.9121 0006623 208.8529 151.2348 15.33722418126334
TIANMU-1 22             
1 58663U 23208D   26094.91317872  .00011095  00000+0  38452-3 0  9992
2 58663  97.4412 210.9350 0002819 221.8890 138.2135 15.29996966126124
TIANMU-1 15             
1 58700U 24004A   26094.94928610  .00008431  00000+0  32820-3 0  9993
2 58700  97.4676 281.1608 0005798 240.3256 119.7405 15.26238716124609
TIANMU-1 16             
1 58701U 24004B   26094.93215909  .00008971  00000+0  34868-3 0  9996
2 58701  97.4620 280.4483 0004199 241.8930 118.1884 15.26276165124605
TIANMU-1 17             
1 58702U 24004C   26094.91408497  .00008951  00000+0  34946-3 0  9996
2 58702  97.4649 280.8953 0004043 248.4322 111.6486 15.26128589124599
TIANMU-1 18             
1 58703U 24004D   26094.96561851  .00008139  00000+0  31693-3 0  9990
2 58703  97.4667 281.1628 0002826 237.6342 122.4623 15.26246911124607
INSAT-3DS               
1 58990U 24033A   26094.86433974 -.00000155  00000+0  00000+0 0  9998
2 58990   0.0411  94.9449 0002184 286.3129 205.1525  1.00271676 46330
METEOR-M2 4             
1 59051U 24039A   26094.95722161  .00000047  00000+0  40797-4 0  9993
2 59051  98.6948  55.2028 0007645  29.8208 330.3404 14.22421477108852
